{
  "links" : {
    "next" : "https://api.nasa.gov/neo/rest/v1/feed?start_date=2007-11-09&end_date=2007-11-09&detailed=true&api_key=t0TVs3DtDT2H8Oy2Zy8m2eVrNsAVKAexjcZXUckd",
    "prev" : "https://api.nasa.gov/neo/rest/v1/feed?start_date=2007-11-07&end_date=2007-11-07&detailed=true&api_key=t0TVs3DtDT2H8Oy2Zy8m2eVrNsAVKAexjcZXUckd",
    "self" : "https://api.nasa.gov/neo/rest/v1/feed?start_date=2007-11-08&end_date=2007-11-08&detailed=true&api_key=t0TVs3DtDT2H8Oy2Zy8m2eVrNsAVKAexjcZXUckd"
  },
  "element_count" : 15,
  "near_earth_objects" : {
    "2007-11-08" : [ {
      "links" : {
        "self" : "https://api.nasa.gov/neo/rest/v1/neo/3395986?api_key=t0TVs3DtDT2H8Oy2Zy8m2eVrNsAVKAexjcZXUckd"
      },
      "neo_reference_id" : "3395986",
      "name" : "(2007 WW4)",
      "nasa_jpl_url" : "http://ssd.jpl.nasa.gov/sbdb.cgi?sstr=3395986",
      "absolute_magnitude_h" : 19.4,
      "estimated_diameter" : {
        "kilometers" : {
          "estimated_diameter_min" : 0.3503926411,
          "estimated_diameter_max" : 0.7835017643
        },
        "meters" : {
          "estimated_diameter_min" : 350.3926411083,
          "estimated_diameter_max" : 783.5017643338
        },
        "miles" : {
          "estimated_diameter_min" : 0.2177238258,
          "estimated_diameter_max" : 0.4868452748
        },
        "feet" : {
          "estimated_diameter_min" : 1149.5821926537,
          "estimated_diameter_max" : 2570.543928497
        }
      },
      "is_potentially_hazardous_asteroid" : false,
      "close_approach_data" : [ {
        "close_approach_date" : "2007-11-08",
        "epoch_date_close_approach" : 1194508800000,
        "relative_velocity" : {
          "kilometers_per_second" : "22.0584319386",
          "kilometers_per_hour" : "79410.3549789406",
          "miles_per_hour" : "49342.5064034423"
        },
        "miss_distance" : {
          "astronomical" : "0.1179283358",
          "lunar" : "45.8741226196",
          "kilometers" : "17641828",
          "miles" : "10962124"
        },
        "orbiting_body" : "Earth"
      } ],
      "orbital_data" : {
        "orbit_id" : "19",
        "orbit_determination_date" : "2017-04-06 09:05:02",
        "orbit_uncertainty" : "0",
        "minimum_orbit_intersection" : ".12015",
        "jupiter_tisserand_invariant" : "3.354",
        "epoch_osculation" : "2458000.5",
        "eccentricity" : ".7153657595083855",
        "semi_major_axis" : "2.096774746601048",
        "inclination" : "10.56600020770015",
        "ascending_node_longitude" : "184.6678279242616",
        "orbital_period" : "1108.986074874927",
        "perihelion_distance" : ".5968138874807866",
        "perihelion_argument" : "135.7872216864034",
        "aphelion_distance" : "3.596735605721308",
        "perihelion_time" : "2457698.678559552261",
        "mean_anomaly" : "97.97753193018247",
        "mean_motion" : ".3246208479584391",
        "equinox" : "J2000"
      }
    }, {
      "links" : {
        "self" : "https://api.nasa.gov/neo/rest/v1/neo/3423827?api_key=t0TVs3DtDT2H8Oy2Zy8m2eVrNsAVKAexjcZXUckd"
      },
      "neo_reference_id" : "3423827",
      "name" : "(2008 PR9)",
      "nasa_jpl_url" : "http://ssd.jpl.nasa.gov/sbdb.cgi?sstr=3423827",
      "absolute_magnitude_h" : 22.5,
      "estimated_diameter" : {
        "kilometers" : {
          "estimated_diameter_min" : 0.0840533402,
          "estimated_diameter_max" : 0.1879489824
        },
        "meters" : {
          "estimated_diameter_min" : 84.0533402073,
          "estimated_diameter_max" : 187.9489824394
        },
        "miles" : {
          "estimated_diameter_min" : 0.0522283081,
          "estimated_diameter_max" : 0.1167860472
        },
        "feet" : {
          "estimated_diameter_min" : 275.7655606856,
          "estimated_diameter_max" : 616.6305395464
        }
      },
      "is_potentially_hazardous_asteroid" : false,
      "close_approach_data" : [ {
        "close_approach_date" : "2007-11-08",
        "epoch_date_close_approach" : 1194508800000,
        "relative_velocity" : {
          "kilometers_per_second" : "17.333716318",
          "kilometers_per_hour" : "62401.378744742",
          "miles_per_hour" : "38773.7900316982"
        },
        "miss_distance" : {
          "astronomical" : "0.461921923",
          "lunar" : "179.6876373291",
          "kilometers" : "69102536",
          "miles" : "42938328"
        },
        "orbiting_body" : "Earth"
      } ],
      "orbital_data" : {
        "orbit_id" : "11",
        "orbit_determination_date" : "2017-04-06 09:03:05",
        "orbit_uncertainty" : "3",
        "minimum_orbit_intersection" : ".0220646",
        "jupiter_tisserand_invariant" : "6.247",
        "epoch_osculation" : "2458000.5",
        "eccentricity" : ".5117600827034207",
        "semi_major_axis" : ".9431810343654431",
        "inclination" : "3.304283490519959",
        "ascending_node_longitude" : "18.97758693305753",
        "orbital_period" : "334.5730965359427",
        "perihelion_distance" : ".4604986302142861",
        "perihelion_argument" : "75.41030964902562",
        "aphelion_distance" : "1.4258634385166",
        "perihelion_time" : "2458113.650042404269",
        "mean_anomaly" : "238.2507748313202",
        "mean_motion" : "1.075998051628535",
        "equinox" : "J2000"
      }
    }, {
      "links" : {
        "self" : "https://api.nasa.gov/neo/rest/v1/neo/3602839?api_key=t0TVs3DtDT2H8Oy2Zy8m2eVrNsAVKAexjcZXUckd"
      },
      "neo_reference_id" : "3602839",
      "name" : "(2012 HP13)",
      "nasa_jpl_url" : "http://ssd.jpl.nasa.gov/sbdb.cgi?sstr=3602839",
      "absolute_magnitude_h" : 24.2,
      "estimated_diameter" : {
        "kilometers" : {
          "estimated_diameter_min" : 0.0384197891,
          "estimated_diameter_max" : 0.0859092601
        },
        "meters" : {
          "estimated_diameter_min" : 38.4197891064,
          "estimated_diameter_max" : 85.9092601232
        },
        "miles" : {
          "estimated_diameter_min" : 0.0238729428,
          "estimated_diameter_max" : 0.0533815229
        },
        "feet" : {
          "estimated_diameter_min" : 126.0491808919,
          "estimated_diameter_max" : 281.8545369825
        }
      },
      "is_potentially_hazardous_asteroid" : false,
      "close_approach_data" : [ {
        "close_approach_date" : "2007-11-08",
        "epoch_date_close_approach" : 1194508800000,
        "relative_velocity" : {
          "kilometers_per_second" : "14.3891004775",
          "kilometers_per_hour" : "51800.7617188949",
          "miles_per_hour" : "32186.9788580544"
        },
        "miss_distance" : {
          "astronomical" : "0.1010454835",
          "lunar" : "39.3066940308",
          "kilometers" : "15116189",
          "miles" : "9392764"
        },
        "orbiting_body" : "Earth"
      } ],
      "orbital_data" : {
        "orbit_id" : "18",
        "orbit_determination_date" : "2017-04-06 08:49:59",
        "orbit_uncertainty" : "1",
        "minimum_orbit_intersection" : ".000598705",
        "jupiter_tisserand_invariant" : "6.064",
        "epoch_osculation" : "2458000.5",
        "eccentricity" : ".1761363543547804",
        "semi_major_axis" : ".9863184916697846",
        "inclination" : "23.01931845137059",
        "ascending_node_longitude" : "37.08913446319676",
        "orbital_period" : "357.7866979431142",
        "perihelion_distance" : ".8125919483143629",
        "perihelion_argument" : "286.5373774214684",
        "aphelion_distance" : "1.160045035025206",
        "perihelion_time" : "2457920.341094649508",
        "mean_anomaly" : "80.65477585409083",
        "mean_motion" : "1.006186093752534",
        "equinox" : "J2000"
      }
    } ]
  }
}